{"fetched_at":"2026-07-21T07:06:28.574Z","source":"https://celestrak.org/NORAD/elements/gp.php?GROUP=oneweb&FORMAT=JSON","constellation":"oneweb","records":[{"OBJECT_NAME":"ONEWEB-0697","OBJECT_ID":"2024-188K","EPOCH":"2026-07-20T20:55:03.575424","CLASSIFICATION_TYPE":"U","MEAN_MOTION":13.11415694,"ECCENTRICITY":0.00026089,"INCLINATION":87.8889,"RA_OF_ASC_NODE":14.359,"ARG_OF_PERICENTER":94.1928,"MEAN_ANOMALY":265.9498,"EPHEMERIS_TYPE":0,"NORAD_CAT_ID":61603,"ELEMENT_SET_NO":999,"REV_AT_EPOCH":8886,"BSTAR":0.00043128169,"MEAN_MOTION_DOT":0.00000166,"MEAN_MOTION_DDOT":0},{"OBJECT_NAME":"ONEWEB-0698","OBJECT_ID":"2024-188L","EPOCH":"2026-07-20T22:13:12.081792","CLASSIFICATION_TYPE":"U","MEAN_MOTION":13.11417628,"ECCENTRICITY":0.00026976,"INCLINATION":87.8885,"RA_OF_ASC_NODE":14.3616,"ARG_OF_PERICENTER":113.0524,"MEAN_ANOMALY":247.0889,"EPHEMERIS_TYPE":0,"NORAD_CAT_ID":61604,"ELEMENT_SET_NO":999,"REV_AT_EPOCH":8889,"BSTAR":0.0015181779,"MEAN_MOTION_DOT":0.00000551,"MEAN_MOTION_DDOT":0},{"OBJECT_NAME":"ONEWEB-0699","OBJECT_ID":"2024-188M","EPOCH":"2026-07-20T21:20:02.584320","CLASSIFICATION_TYPE":"U","MEAN_MOTION":13.10375715,"ECCENTRICITY":0.00025025,"INCLINATION":87.8821,"RA_OF_ASC_NODE":29.5488,"ARG_OF_PERICENTER":93.7951,"MEAN_ANOMALY":266.3462,"EPHEMERIS_TYPE":0,"NORAD_CAT_ID":61605,"ELEMENT_SET_NO":999,"REV_AT_EPOCH":8772,"BSTAR":0.0016804721,"MEAN_MOTION_DOT":0.00000599,"MEAN_MOTION_DDOT":0},{"OBJECT_NAME":"ONEWEB-0700","OBJECT_ID":"2024-188N","EPOCH":"2026-07-20T21:22:29.985312","CLASSIFICATION_TYPE":"U","MEAN_MOTION":13.10368206,"ECCENTRICITY":0.00024091,"INCLINATION":87.8838,"RA_OF_ASC_NODE":29.4632,"ARG_OF_PERICENTER":92.9574,"MEAN_ANOMALY":267.1829,"EPHEMERIS_TYPE":0,"NORAD_CAT_ID":61606,"ELEMENT_SET_NO":999,"REV_AT_EPOCH":8771,"BSTAR":0.0045747689,"MEAN_MOTION_DOT":0.0000161,"MEAN_MOTION_DDOT":0},{"OBJECT_NAME":"ONEWEB-0701","OBJECT_ID":"2024-188P","EPOCH":"2026-07-20T21:46:55.481376","CLASSIFICATION_TYPE":"U","MEAN_MOTION":13.10369775,"ECCENTRICITY":0.00026394,"INCLINATION":87.8818,"RA_OF_ASC_NODE":29.5458,"ARG_OF_PERICENTER":96.0931,"MEAN_ANOMALY":264.0497,"EPHEMERIS_TYPE":0,"NORAD_CAT_ID":61607,"ELEMENT_SET_NO":999,"REV_AT_EPOCH":8772,"BSTAR":0.0011031173,"MEAN_MOTION_DOT":0.00000398,"MEAN_MOTION_DDOT":0},{"OBJECT_NAME":"ONEWEB-0702","OBJECT_ID":"2024-188Q","EPOCH":"2026-07-20T21:29:14.184384","CLASSIFICATION_TYPE":"U","MEAN_MOTION":13.11417215,"ECCENTRICITY":0.00028761,"INCLINATION":87.8909,"RA_OF_ASC_NODE":14.2799,"ARG_OF_PERICENTER":89.3945,"MEAN_ANOMALY":270.7512,"EPHEMERIS_TYPE":0,"NORAD_CAT_ID":61608,"ELEMENT_SET_NO":999,"REV_AT_EPOCH":8890,"BSTAR":-0.0014122291,"MEAN_MOTION_DOT":-0.00000488,"MEAN_MOTION_DDOT":0},{"OBJECT_NAME":"ONEWEB-0704","OBJECT_ID":"2024-188R","EPOCH":"2026-07-20T19:39:51.699168","CLASSIFICATION_TYPE":"U","MEAN_MOTION":13.10372297,"ECCENTRICITY":0.00028577,"INCLINATION":87.8825,"RA_OF_ASC_NODE":29.5534,"ARG_OF_PERICENTER":85.1867,"MEAN_ANOMALY":274.9587,"EPHEMERIS_TYPE":0,"NORAD_CAT_ID":61609,"ELEMENT_SET_NO":999,"REV_AT_EPOCH":8769,"BSTAR":0.0019287511,"MEAN_MOTION_DOT":0.00000686,"MEAN_MOTION_DDOT":0},{"OBJECT_NAME":"ONEWEB-0705","OBJECT_ID":"2024-188S","EPOCH":"2026-07-20T01:27:38.992608","CLASSIFICATION_TYPE":"U","MEAN_MOTION":13.1037059,"ECCENTRICITY":0.00025701,"INCLINATION":87.8824,"RA_OF_ASC_NODE":29.7107,"ARG_OF_PERICENTER":70.5604,"MEAN_ANOMALY":289.5801,"EPHEMERIS_TYPE":0,"NORAD_CAT_ID":61610,"ELEMENT_SET_NO":999,"REV_AT_EPOCH":7976,"BSTAR":0.0015236952,"MEAN_MOTION_DOT":0.00000545,"MEAN_MOTION_DDOT":0},{"OBJECT_NAME":"ONEWEB-0706","OBJECT_ID":"2024-188T","EPOCH":"2026-07-20T21:15:09.279648","CLASSIFICATION_TYPE":"U","MEAN_MOTION":13.10374093,"ECCENTRICITY":0.00023205,"INCLINATION":87.8827,"RA_OF_ASC_NODE":29.5497,"ARG_OF_PERICENTER":83.0372,"MEAN_ANOMALY":277.1019,"EPHEMERIS_TYPE":0,"NORAD_CAT_ID":61611,"ELEMENT_SET_NO":999,"REV_AT_EPOCH":8779,"BSTAR":0.00084640801,"MEAN_MOTION_DOT":0.00000308,"MEAN_MOTION_DDOT":0},{"OBJECT_NAME":"ONEWEB-0707","OBJECT_ID":"2024-188U","EPOCH":"2026-07-20T21:24:55.476864","CLASSIFICATION_TYPE":"U","MEAN_MOTION":13.10371872,"ECCENTRICITY":0.00023928,"INCLINATION":87.8826,"RA_OF_ASC_NODE":29.5439,"ARG_OF_PERICENTER":84.1544,"MEAN_ANOMALY":275.9856,"EPHEMERIS_TYPE":0,"NORAD_CAT_ID":61612,"ELEMENT_SET_NO":999,"REV_AT_EPOCH":8773,"BSTAR":0.0015661758,"MEAN_MOTION_DOT":0.00000559,"MEAN_MOTION_DDOT":0},{"OBJECT_NAME":"ONEWEB-0708","OBJECT_ID":"2024-188V","EPOCH":"2026-07-20T21:51:47.616192","CLASSIFICATION_TYPE":"U","MEAN_MOTION":13.10368799,"ECCENTRICITY":0.00018646,"INCLINATION":87.8814,"RA_OF_ASC_NODE":29.5558,"ARG_OF_PERICENTER":71.5506,"MEAN_ANOMALY":288.5824,"EPHEMERIS_TYPE":0,"NORAD_CAT_ID":61613,"ELEMENT_SET_NO":999,"REV_AT_EPOCH":8771,"BSTAR":0.00066829071,"MEAN_MOTION_DOT":0.00000246,"MEAN_MOTION_DDOT":0}]}
