ONEWEB-0697             
1 61603U 24188K   26201.87156916  .00000166  00000+0  43128-3 0  9996
2 61603  87.8889  14.3590 0002608  94.1928 265.9498 13.11415694 88865
ONEWEB-0698             
1 61604U 24188L   26201.92583428  .00000551  00000+0  15182-2 0  9991
2 61604  87.8885  14.3616 0002697 113.0524 247.0889 13.11417628 88899
ONEWEB-0699             
1 61605U 24188M   26201.88891880  .00000599  00000+0  16805-2 0  9996
2 61605  87.8821  29.5488 0002502  93.7951 266.3462 13.10375715 87729
ONEWEB-0700             
1 61606U 24188N   26201.89062483  .00001610  00000+0  45748-2 0  9990
2 61606  87.8838  29.4632 0002409  92.9574 267.1829 13.10368206 87718
ONEWEB-0701             
1 61607U 24188P   26201.90758659  .00000398  00000+0  11031-2 0  9990
2 61607  87.8818  29.5458 0002639  96.0931 264.0497 13.10369775 87721
ONEWEB-0702             
1 61608U 24188Q   26201.89530306 -.00000488  00000+0 -14122-2 0  9992
2 61608  87.8909  14.2799 0002876  89.3945 270.7512 13.11417215 88902
ONEWEB-0704             
1 61609U 24188R   26201.81934837  .00000686  00000+0  19288-2 0  9998
2 61609  87.8825  29.5534 0002857  85.1867 274.9587 13.10372297 87694
ONEWEB-0705             
1 61610U 24188S   26201.06086797  .00000545  00000+0  15237-2 0  9994
2 61610  87.8824  29.7107 0002570  70.5604 289.5801 13.10370590 79766
ONEWEB-0706             
1 61611U 24188T   26201.88552407  .00000308  00000+0  84641-3 0  9994
2 61611  87.8827  29.5497 0002320  83.0372 277.1019 13.10374093 87792
ONEWEB-0707             
1 61612U 24188U   26201.89230876  .00000559  00000+0  15662-2 0  9993
2 61612  87.8826  29.5439 0002392  84.1544 275.9856 13.10371872 87731
ONEWEB-0708             
1 61613U 24188V   26201.91096778  .00000246  00000+0  66829-3 0  9993
2 61613  87.8814  29.5558 0001864  71.5506 288.5824 13.10368799 87719
